{"spkid": "54353620", "covariance": {"labels": ["e", "q", "tp", "node", "peri", "i"], "elements": [{"title": "eccentricity", "value": ".1776519423051287", "units": null, "sigma": 5.86895712071546e-07, "name": "e", "label": "e"}, {"label": "q", "title": "perihelion distance", "value": ".8228631207136133", "units": "au", "sigma": 5.87486216106169e-07, "name": "q"}, {"label": "tp", "sigma": 0.000162656914548222, "name": "tp", "title": "time of perihelion passage", "value": "2459195.490618845015", "units": "TDB"}, {"name": "om", "sigma": 0.000285301918122889, "units": "deg", "value": "71.22578557753089", "title": "longitude of the ascending node", "label": "node"}, {"sigma": 0.000234785757874987, "name": "w", "title": "argument of perihelion", "value": "354.0079035451856", "units": "deg", "label": "peri"}, {"label": "i", "units": "deg", "title": "inclination", "value": "2.746140731690913", "sigma": 9.77366609096559e-06, "name": "i"}], "data": [["3.444465768479669E-13", "-3.447891205377506E-13", "9.034546215690821E-11", "1.461924140578189E-10", "-1.023569196387544E-10", "-5.108299339839671E-12"], ["-3.447891205377506E-13", "3.451400541147446E-13", "-9.056294659515634E-11", "-1.463446048441622E-10", "1.023658650366673E-10", "5.122067838661625E-12"], ["9.034546215690821E-11", "-9.056294659515634E-11", "2.645727185034768E-8", "3.625374070289626E-8", "-2.255767652820074E-8", "-1.457976299908611E-9"], ["1.461924140578189E-10", "-1.463446048441622E-10", "3.625374070289626E-8", "8.139718448459958E-8", "-6.459419750106506E-8", "-2.545012405074842E-9"], ["-1.023569196387544E-10", "1.023658650366673E-10", "-2.255767652820074E-8", "-6.459419750106506E-8", "5.512435210093225E-8", "1.805274905983294E-9"], ["-5.108299339839671E-12", "5.122067838661625E-12", "-1.457976299908611E-9", "-2.545012405074842E-9", "1.805274905983294E-9", "9.552454885769052E-11"]], "epoch": "2459351.5"}, "elements": [{"units": null, "value": ".1773708906617127", "title": "eccentricity", "name": "e", "sigma": "5.9557E-7", "label": "e"}, {"units": "au", "title": "semi-major axis", "value": ".9989867971794848", "sigma": "7.6237E-9", "name": "a", "label": "a"}, {"title": "perihelion distance", "value": ".8217956192044679", "units": "au", "name": "q", "sigma": "5.9673E-7", "label": "q"}, {"label": "i", "sigma": "1.0002E-5", "name": "i", "value": "2.752808855129373", "title": "inclination; angle with respect to x-y ecliptic plane", "units": "deg"}, {"sigma": ".00027634", "name": "om", "units": "deg", "title": "longitude of the ascending node", "value": "68.82651946671659", "label": "node"}, {"name": "w", "sigma": ".00022495", "units": "deg", "title": "argument of perihelion", "value": "355.2825223316702", "label": "peri"}, {"label": "M", "units": "deg", "title": "mean anomaly", "value": "177.3643144269665", "name": "ma", "sigma": ".00016757"}, {"units": "TDB", "value": "2461020.819149977518", "title": "time of perihelion passage", "sigma": ".00017035", "name": "tp", "label": "tp"}, {"label": "period", "name": "per", "sigma": "4.1748E-6", "units": "d", "value": "364.7019199836224", "title": "sidereal orbital period"}, {"label": "n", "sigma": "1.13E-8", "name": "n", "title": "mean motion", "value": ".9871074986832163", "units": "deg/d"}, {"sigma": "8.976E-9", "name": "ad", "value": "1.176177975154502", "title": "aphelion distance", "units": "au", "label": "Q"}], "epoch": "2461200.5"}